[
  {
    "name": "ONEWEB-0473",
    "noradId": "51653",
    "line1": "1 51653U 22012AH  26167.56648102 -.00000628  00000+0 -18359-2 0  9996",
    "line2": "2 51653  87.8831  36.4004 0001822  79.1257 281.0075 13.10363931209226"
  },
  {
    "name": "ONEWEB-0474",
    "noradId": "51654",
    "line1": "1 51654U 22012AJ  26167.55818000  .00000252  00000+0  68572-3 0  9996",
    "line2": "2 51654  87.8840  36.3861 0001618  74.4081 285.7224 13.10368956209211"
  },
  {
    "name": "ONEWEB-0475",
    "noradId": "51655",
    "line1": "1 51655U 22012AK  26167.53892169  .00000003  00000+0 -24708-4 0  9992",
    "line2": "2 51655  87.9133   6.0016 0001498  68.5997 291.5295 13.17648615213601"
  },
  {
    "name": "ONEWEB-0490",
    "noradId": "54113",
    "line1": "1 54113U 22138A   26167.45223290  .00000050  00000+0  93403-4 0  9996",
    "line2": "2 54113  87.9175 305.1131 0001688 101.3684 258.7638 13.19725473176738"
  },
  {
    "name": "ONEWEB-0492",
    "noradId": "54114",
    "line1": "1 54114U 22138B   26167.62914495  .00000047  00000+0  85356-4 0  9994",
    "line2": "2 54114  87.9168 305.0793 0001839 106.6980 253.4355 13.19726397176766"
  },
  {
    "name": "ONEWEB-0495",
    "noradId": "54115",
    "line1": "1 54115U 22138C   26167.60702580  .00000035  00000+0  55597-4 0  9994",
    "line2": "2 54115  87.9168 305.0862 0001254 108.7601 251.3668 13.19724852176744"
  },
  {
    "name": "ONEWEB-0497",
    "noradId": "54116",
    "line1": "1 54116U 22138D   26167.39221265  .00000068  00000+0  13646-3 0  9991",
    "line2": "2 54116  87.9175 305.1208 0001779  99.9031 260.2303 13.19724593176701"
  },
  {
    "name": "ONEWEB-0499",
    "noradId": "54117",
    "line1": "1 54117U 22138E   26167.45144316  .00000043  00000+0  74822-4 0  9997",
    "line2": "2 54117  87.9168 305.1185 0001589  97.3116 262.8198 13.19726763176726"
  },
  {
    "name": "ONEWEB-0500",
    "noradId": "54118",
    "line1": "1 54118U 22138F   26167.60544333  .00000050  00000+0  91822-4 0  9995",
    "line2": "2 54118  87.9178 305.0819 0001921 100.3480 259.7870 13.19724717176752"
  },
  {
    "name": "ONEWEB-0501",
    "noradId": "54119",
    "line1": "1 54119U 22138G   26167.40800306  .00000117  00000+0  25981-3 0  9995",
    "line2": "2 54119  87.9177 305.1209 0001445 102.8994 257.2301 13.19723874176704"
  },
  {
    "name": "ONEWEB-0502",
    "noradId": "54120",
    "line1": "1 54120U 22138H   26167.39378372  .00000093  00000+0  19926-3 0  9993",
    "line2": "2 54120  87.9177 305.1123 0001603  95.2135 264.9181 13.19724152176722"
  },
  {
    "name": "ONEWEB-0503",
    "noradId": "54121",
    "line1": "1 54121U 22138J   26167.61018517 -.00000052  00000+0 -16175-3 0  9991",
    "line2": "2 54121  87.9180 305.0753 0001895  90.7933 269.3417 13.19724731176740"
  },
  {
    "name": "ONEWEB-0504",
    "noradId": "54122",
    "line1": "1 54122U 22138K   26167.37010188 -.00000006  00000+0 -47686-4 0  9992",
    "line2": "2 54122  87.9176 305.1282 0001643  95.4049 264.7271 13.19725121176724"
  },
  {
    "name": "ONEWEB-0505",
    "noradId": "54123",
    "line1": "1 54123U 22138L   26167.36694391  .00000041  00000+0  70165-4 0  9991",
    "line2": "2 54123  87.9176 305.1299 0001394  98.6344 261.4947 13.19726485176705"
  },
  {
    "name": "ONEWEB-0506",
    "noradId": "54124",
    "line1": "1 54124U 22138M   26167.64492702  .00000025  00000+0  31029-4 0  9993",
    "line2": "2 54124  87.9179 305.0715 0001530 100.5159 259.6146 13.19723572176737"
  },
  {
    "name": "ONEWEB-0507",
    "noradId": "54125",
    "line1": "1 54125U 22138N   26167.43802074  .00000042  00000+0  71973-4 0  9999",
    "line2": "2 54125  87.9167 305.1249 0001681 101.6417 258.4905 13.19725428176758"
  },
  {
    "name": "ONEWEB-0508",
    "noradId": "54126",
    "line1": "1 54126U 22138P   26167.35903569  .00000060  00000+0  11821-3 0  9997",
    "line2": "2 54126  87.9168 305.1401 0001532 108.3919 251.7380 13.19724939176722"
  },
  {
    "name": "ONEWEB-0509",
    "noradId": "54127",
    "line1": "1 54127U 22138Q   26167.63703004  .00000395  00000+0  95544-3 0  9996",
    "line2": "2 54127  87.9179 305.0742 0001743 100.1482 259.9847 13.19723580176731"
  },
  {
    "name": "ONEWEB-0510",
    "noradId": "54128",
    "line1": "1 54128U 22138R   26167.52596585 -.00000007  00000+0 -49350-4 0  9996",
    "line2": "2 54128  87.9195 274.5674 0002388  95.6357 264.5049 13.20772590179195"
  },
  {
    "name": "ONEWEB-0511",
    "noradId": "54129",
    "line1": "1 54129U 22138S   26167.63388079 -.00000009  00000+0 -55192-4 0  9999",
    "line2": "2 54129  87.9174 305.0773 0001738  90.2882 269.8450 13.19725970176767"
  },
  {
    "name": "ONEWEB-0512",
    "noradId": "54130",
    "line1": "1 54130U 22138T   26167.62597557  .00000065  00000+0  12886-3 0  9995",
    "line2": "2 54130  87.9167 305.0839 0001529  94.9673 265.1634 13.19725777176736"
  },
  {
    "name": "ONEWEB-0513",
    "noradId": "54131",
    "line1": "1 54131U 22138U   26167.63182324  .00000066  00000+0  13199-3 0  9998",
    "line2": "2 54131  87.9175 305.0271 0001153  74.5835 285.5425 13.20269089176648"
  },
  {
    "name": "ONEWEB-0514",
    "noradId": "54132",
    "line1": "1 54132U 22138V   26167.64177239 -.00000471  00000+0 -12076-2 0  9993",
    "line2": "2 54132  87.9182 305.0750 0002020  95.4265 264.7098 13.19727182176750"
  },
  {
    "name": "ONEWEB-0515",
    "noradId": "54133",
    "line1": "1 54133U 22138W   26167.58824982 -.00000040  00000+0 -12983-3 0  9991",
    "line2": "2 54133  87.9200 274.5496 0002708 110.8833 249.2590 13.20770503179222"
  },
  {
    "name": "ONEWEB-0516",
    "noradId": "54134",
    "line1": "1 54134U 22138X   26167.38904370  .00000049  00000+0  89202-4 0  9996",
    "line2": "2 54134  87.9167 305.1314 0001806 102.9980 257.1355 13.19725708176722"
  },
  {
    "name": "ONEWEB-0517",
    "noradId": "54135",
    "line1": "1 54135U 22138Y   26167.36851473  .00000021  00000+0  20610-4 0  9998",
    "line2": "2 54135  87.9175 305.1279 0001922  89.4361 270.6992 13.19724671176728"
  },
  {
    "name": "ONEWEB-0518",
    "noradId": "54136",
    "line1": "1 54136U 22138Z   26167.61493420  .00000066  00000+0  13146-3 0  9995",
    "line2": "2 54136  87.9169 305.0884 0001831 104.7345 255.3991 13.19728286176753"
  },
  {
    "name": "ONEWEB-0519",
    "noradId": "54137",
    "line1": "1 54137U 22138AA  26167.64020006  .00000098  00000+0  21327-3 0  9990",
    "line2": "2 54137  87.9179 305.0746 0001925  92.2659 267.8694 13.19726957176767"
  },
  {
    "name": "ONEWEB-0520",
    "noradId": "54138",
    "line1": "1 54138U 22138AB  26167.44749733 -.00000036  00000+0 -12270-3 0  9995",
    "line2": "2 54138  87.9178 305.1132 0001598 101.9542 258.1770 13.19725042176720"
  },
  {
    "name": "ONEWEB-0521",
    "noradId": "54139",
    "line1": "1 54139U 22138AC  26167.40484512  .00000109  00000+0  24105-3 0  9992",
    "line2": "2 54139  87.9176 305.1099 0001973  92.4268 267.7091 13.19725308176667"
  }
]