OBJECT_NAME,OBJECT_ID,EPOCH,MEAN_MOTION,ECCENTRICITY,INCLINATION,RA_OF_ASC_NODE,ARG_OF_PERICENTER,MEAN_ANOMALY,EPHEMERIS_TYPE,CLASSIFICATION_TYPE,NORAD_CAT_ID,ELEMENT_SET_NO,REV_AT_EPOCH,BSTAR,MEAN_MOTION_DOT,MEAN_MOTION_DDOT
ONEWEB-0473,2022-012AH,2026-06-16T13:35:43.960128,13.10363931,.00018224,87.8831,36.4004,79.1257,281.0075,0,U,51653,999,20922,-.1835852E-2,-.628E-5,0
ONEWEB-0474,2022-012AJ,2026-06-16T13:23:46.752000,13.10368956,.00016184,87.8840,36.3861,74.4081,285.7224,0,U,51654,999,20921,.68571915E-3,.252E-5,0
ONEWEB-0475,2022-012AK,2026-06-16T12:56:02.834016,13.17648615,.00014989,87.9133,6.0016,68.5997,291.5295,0,U,51655,999,21360,-.24707594E-4,.3E-7,0
ONEWEB-0490,2022-138A,2026-06-16T10:51:12.922560,13.19725473,.00016888,87.9175,305.1131,101.3684,258.7638,0,U,54113,999,17673,.93403193E-4,.5E-6,0
ONEWEB-0492,2022-138B,2026-06-16T15:05:58.123680,13.19726397,.00018395,87.9168,305.0793,106.6980,253.4355,0,U,54114,999,17676,.85355542E-4,.47E-6,0
ONEWEB-0495,2022-138C,2026-06-16T14:34:07.029120,13.19724852,.00012545,87.9168,305.0862,108.7601,251.3668,0,U,54115,999,17674,.55596722E-4,.35E-6,0
ONEWEB-0497,2022-138D,2026-06-16T09:24:47.172960,13.19724593,.00017796,87.9175,305.1208,99.9031,260.2303,0,U,54116,999,17670,.13646229E-3,.68E-6,0
ONEWEB-0499,2022-138E,2026-06-16T10:50:04.689024,13.19726763,.0001589,87.9168,305.1185,97.3116,262.8198,0,U,54117,999,17672,.74821517E-4,.43E-6,0
ONEWEB-0500,2022-138F,2026-06-16T14:31:50.303712,13.19724717,.00019214,87.9178,305.0819,100.3480,259.7870,0,U,54118,999,17675,.91821942E-4,.5E-6,0
ONEWEB-0501,2022-138G,2026-06-16T09:47:31.464384,13.19723874,.00014457,87.9177,305.1209,102.8994,257.2301,0,U,54119,999,17670,.25980759E-3,.117E-5,0
ONEWEB-0502,2022-138H,2026-06-16T09:27:02.913408,13.19724152,.00016036,87.9177,305.1123,95.2135,264.9181,0,U,54120,999,17672,.19926452E-3,.93E-6,0
ONEWEB-0503,2022-138J,2026-06-16T14:38:39.998688,13.19724731,.0001895,87.9180,305.0753,90.7933,269.3417,0,U,54121,999,17674,-.16174512E-3,-.52E-6,0
ONEWEB-0504,2022-138K,2026-06-16T08:52:56.802432,13.19725121,.00016431,87.9176,305.1282,95.4049,264.7271,0,U,54122,999,17672,-.47685873E-4,-.6E-7,0
ONEWEB-0505,2022-138L,2026-06-16T08:48:23.953824,13.19726485,.00013944,87.9176,305.1299,98.6344,261.4947,0,U,54123,999,17670,.70164741E-4,.41E-6,0
ONEWEB-0506,2022-138M,2026-06-16T15:28:41.694528,13.19723572,.00015306,87.9179,305.0715,100.5159,259.6146,0,U,54124,999,17673,.31029494E-4,.25E-6,0
ONEWEB-0507,2022-138N,2026-06-16T10:30:44.991936,13.19725428,.00016818,87.9167,305.1249,101.6417,258.4905,0,U,54125,999,17675,.71973014E-4,.42E-6,0
ONEWEB-0508,2022-138P,2026-06-16T08:37:00.683616,13.19724939,.00015321,87.9168,305.1401,108.3919,251.7380,0,U,54126,999,17672,.11821006E-3,.6E-6,0
ONEWEB-0509,2022-138Q,2026-06-16T15:17:19.395456,13.19723580,.0001743,87.9179,305.0742,100.1482,259.9847,0,U,54127,999,17673,.95543658E-3,.395E-5,0
ONEWEB-0510,2022-138R,2026-06-16T12:37:23.449440,13.20772590,.00023889,87.9195,274.5674,95.6357,264.5049,0,U,54128,999,17919,-.49349599E-4,-.7E-7,0
ONEWEB-0511,2022-138S,2026-06-16T15:12:47.300256,13.19725970,.0001738,87.9174,305.0773,90.2882,269.8450,0,U,54129,999,17676,-.55191617E-4,-.9E-7,0
ONEWEB-0512,2022-138T,2026-06-16T15:01:24.289248,13.19725777,.00015296,87.9167,305.0839,94.9673,265.1634,0,U,54130,999,17673,.12886343E-3,.65E-6,0
ONEWEB-0513,2022-138U,2026-06-16T15:09:49.527936,13.20269089,.00011535,87.9175,305.0271,74.5835,285.5425,0,U,54131,999,17664,.13199279E-3,.66E-6,0
ONEWEB-0514,2022-138V,2026-06-16T15:24:09.134496,13.19727182,.00020208,87.9182,305.0750,95.4265,264.7098,0,U,54132,999,17675,-.12076432E-2,-.471E-5,0
ONEWEB-0515,2022-138W,2026-06-16T14:07:04.784448,13.20770503,.00027088,87.9200,274.5496,110.8833,249.2590,0,U,54133,999,17922,-.12982977E-3,-.4E-6,0
ONEWEB-0516,2022-138X,2026-06-16T09:20:13.375680,13.19725708,.00018062,87.9167,305.1314,102.9980,257.1355,0,U,54134,999,17672,.89202294E-4,.49E-6,0
ONEWEB-0517,2022-138Y,2026-06-16T08:50:39.672672,13.19724671,.00019224,87.9175,305.1279,89.4361,270.6992,0,U,54135,999,17672,.20610364E-4,.21E-6,0
ONEWEB-0518,2022-138Z,2026-06-16T14:45:30.314880,13.19728286,.00018317,87.9169,305.0884,104.7345,255.3991,0,U,54136,999,17675,.13145854E-3,.66E-6,0
ONEWEB-0519,2022-138AA,2026-06-16T15:21:53.285184,13.19726957,.00019253,87.9179,305.0746,92.2659,267.8694,0,U,54137,999,17676,.21326831E-3,.98E-6,0
ONEWEB-0520,2022-138AB,2026-06-16T10:44:23.769312,13.19725042,.00015988,87.9178,305.1132,101.9542,258.1770,0,U,54138,999,17672,-.12269681E-3,-.36E-6,0
ONEWEB-0521,2022-138AC,2026-06-16T09:42:58.618368,13.19725308,.00019735,87.9176,305.1099,92.4268,267.7091,0,U,54139,999,17666,.24105291E-3,.109E-5,0
